ONEWEB-0033             
1 45142U 20008M   26093.29883626 -.00000467  00000+0 -13752-2 0  9998
2 45142  87.8818  51.1820 0002356  73.0292 287.1093 13.10376712298408
ONEWEB-0035             
1 45143U 20008N   26093.25321585  .00000678  00000+0  19045-2 0  9999
2 45143  87.8810  51.1896 0002004  79.2254 280.9099 13.10372797298125
ONEWEB-0036             
1 45144U 20008P   26093.26361748  .00000608  00000+0  17182-2 0  9999
2 45144  87.8825  51.1675 0001658  84.8711 275.2605 13.09814890298551
ONEWEB-0038             
1 45145U 20008Q   26093.24544848 -.00000441  00000+0 -12810-2 0  9992
2 45145  87.8919  35.9634 0003367  98.5906 261.5603 13.11415859300508
ONEWEB-0039             
1 45146U 20008R   26093.30216212 -.00000407  00000+0 -12024-2 0  9990
2 45146  87.8826  51.1679 0001697  97.5816 262.5504 13.10375598298352
ONEWEB-0040             
1 45147U 20008S   26093.29551727 -.00000568  00000+0 -16647-2 0  9995
2 45147  87.8817  51.1832 0001933  83.9117 276.2230 13.10373763298057
ONEWEB-0043             
1 45149U 20008U   26093.29717705 -.00000541  00000+0 -15849-2 0  9991
2 45149  87.8826  51.1667 0001649  98.2949 261.8365 13.10374905298374
ONEWEB-0044             
1 45150U 20008V   26093.24906519  .00000688  00000+0  19347-2 0  9998
2 45150  87.8828  51.1734 0001875  86.7866 273.3476 13.10373036298661
ONEWEB-0045             
1 45151U 20008W   26093.24022783 -.00000335  00000+0 -98025-3 0  9993
2 45151  87.8914  35.9510 0001849  83.1406 276.9933 13.11415719300580
ONEWEB-0047             
1 45152U 20008X   26093.24241343  .00000406  00000+0  11253-2 0  9993
2 45152  87.8824  51.1758 0002073  80.3362 279.8000 13.10376387298382
ONEWEB-0048             
1 45153U 20008Y   26093.23743400  .00000021  00000+0  23894-4 0  9993
2 45153  87.8821  51.2028 0001976  80.7560 279.3791 13.10374678297995
ONEWEB-0049             
1 45154U 20008Z   26093.24061971  .00000234  00000+0  63546-3 0  9994
2 45154  87.8820  51.1903 0001452  76.1948 283.9340 13.10375583298217
ONEWEB-0051             
1 45155U 20008AA  26093.23851785 -.00000192  00000+0 -57758-3 0  9997
2 45155  87.8911  35.9638 0001876  80.2576 279.8764 13.11416842301266
ONEWEB-0052             
1 45156U 20008AB  26093.25879064  .00009367  00000+0  27352-1 0  9996
2 45156  87.8826  51.1694 0001734  78.8341 281.2980 13.08894756298127
ONEWEB-0053             
1 45157U 20008AC  26093.29385064 -.00000576  00000+0 -16858-2 0  9998
2 45157  87.8817  51.1888 0001503  93.3374 266.7925 13.10373230298102
ONEWEB-0054             
1 45158U 20008AD  26093.25236981  .00000646  00000+0  18152-2 0  9993
2 45158  87.8824  51.1735 0001821  79.5393 280.5940 13.10374640298211
