[{"OBJECT_NAME":"ONEWEB-0033","OBJECT_ID":"2020-008M","EPOCH":"2026-04-03T07:10:19.452864","MEAN_MOTION":13.10376712,"ECCENTRICITY":0.0002356,"INCLINATION":87.8818,"RA_OF_ASC_NODE":51.182,"ARG_OF_PERICENTER":73.0292,"MEAN_ANOMALY":287.1093,"EPHEMERIS_TYPE":0,"CLASSIFICATION_TYPE":"U","NORAD_CAT_ID":45142,"ELEMENT_SET_NO":999,"REV_AT_EPOCH":29840,"BSTAR":-0.0013752,"MEAN_MOTION_DOT":-4.67e-06,"MEAN_MOTION_DDOT":0.0},{"OBJECT_NAME":"ONEWEB-0035","OBJECT_ID":"2020-008N","EPOCH":"2026-04-03T06:04:37.849440","MEAN_MOTION":13.10372797,"ECCENTRICITY":0.0002004,"INCLINATION":87.881,"RA_OF_ASC_NODE":51.1896,"ARG_OF_PERICENTER":79.2254,"MEAN_ANOMALY":280.9099,"EPHEMERIS_TYPE":0,"CLASSIFICATION_TYPE":"U","NORAD_CAT_ID":45143,"ELEMENT_SET_NO":999,"REV_AT_EPOCH":29812,"BSTAR":0.0019045000000000002,"MEAN_MOTION_DOT":6.78e-06,"MEAN_MOTION_DDOT":0.0},{"OBJECT_NAME":"ONEWEB-0036","OBJECT_ID":"2020-008P","EPOCH":"2026-04-03T06:19:36.550272","MEAN_MOTION":13.0981489,"ECCENTRICITY":0.0001658,"INCLINATION":87.8825,"RA_OF_ASC_NODE":51.1675,"ARG_OF_PERICENTER":84.8711,"MEAN_ANOMALY":275.2605,"EPHEMERIS_TYPE":0,"CLASSIFICATION_TYPE":"U","NORAD_CAT_ID":45144,"ELEMENT_SET_NO":999,"REV_AT_EPOCH":29855,"BSTAR":0.0017182,"MEAN_MOTION_DOT":6.08e-06,"MEAN_MOTION_DDOT":0.0},{"OBJECT_NAME":"ONEWEB-0038","OBJECT_ID":"2020-008Q","EPOCH":"2026-04-03T05:53:26.748672","MEAN_MOTION":13.11415859,"ECCENTRICITY":0.0003367,"INCLINATION":87.8919,"RA_OF_ASC_NODE":35.9634,"ARG_OF_PERICENTER":98.5906,"MEAN_ANOMALY":261.5603,"EPHEMERIS_TYPE":0,"CLASSIFICATION_TYPE":"U","NORAD_CAT_ID":45145,"ELEMENT_SET_NO":999,"REV_AT_EPOCH":30050,"BSTAR":-0.001281,"MEAN_MOTION_DOT":-4.41e-06,"MEAN_MOTION_DDOT":0.0},{"OBJECT_NAME":"ONEWEB-0039","OBJECT_ID":"2020-008R","EPOCH":"2026-04-03T07:15:06.807168","MEAN_MOTION":13.10375598,"ECCENTRICITY":0.0001697,"INCLINATION":87.8826,"RA_OF_ASC_NODE":51.1679,"ARG_OF_PERICENTER":97.5816,"MEAN_ANOMALY":262.5504,"EPHEMERIS_TYPE":0,"CLASSIFICATION_TYPE":"U","NORAD_CAT_ID":45146,"ELEMENT_SET_NO":999,"REV_AT_EPOCH":29835,"BSTAR":-0.0012024,"MEAN_MOTION_DOT":-4.07e-06,"MEAN_MOTION_DDOT":0.0},{"OBJECT_NAME":"ONEWEB-0040","OBJECT_ID":"2020-008S","EPOCH":"2026-04-03T07:05:32.692128","MEAN_MOTION":13.10373763,"ECCENTRICITY":0.0001933,"INCLINATION":87.8817,"RA_OF_ASC_NODE":51.1832,"ARG_OF_PERICENTER":83.9117,"MEAN_ANOMALY":276.223,"EPHEMERIS_TYPE":0,"CLASSIFICATION_TYPE":"U","NORAD_CAT_ID":45147,"ELEMENT_SET_NO":999,"REV_AT_EPOCH":29805,"BSTAR":-0.0016647,"MEAN_MOTION_DOT":-5.68e-06,"MEAN_MOTION_DDOT":0.0},{"OBJECT_NAME":"ONEWEB-0043","OBJECT_ID":"2020-008U","EPOCH":"2026-04-03T07:07:56.097120","MEAN_MOTION":13.10374905,"ECCENTRICITY":0.0001649,"INCLINATION":87.8826,"RA_OF_ASC_NODE":51.1667,"ARG_OF_PERICENTER":98.2949,"MEAN_ANOMALY":261.8365,"EPHEMERIS_TYPE":0,"CLASSIFICATION_TYPE":"U","NORAD_CAT_ID":45149,"ELEMENT_SET_NO":999,"REV_AT_EPOCH":29837,"BSTAR":-0.0015849,"MEAN_MOTION_DOT":-5.41e-06,"MEAN_MOTION_DDOT":0.0},{"OBJECT_NAME":"ONEWEB-0044","OBJECT_ID":"2020-008V","EPOCH":"2026-04-03T05:58:39.232416","MEAN_MOTION":13.10373036,"ECCENTRICITY":0.0001875,"INCLINATION":87.8828,"RA_OF_ASC_NODE":51.1734,"ARG_OF_PERICENTER":86.7866,"MEAN_ANOMALY":273.3476,"EPHEMERIS_TYPE":0,"CLASSIFICATION_TYPE":"U","NORAD_CAT_ID":45150,"ELEMENT_SET_NO":999,"REV_AT_EPOCH":29866,"BSTAR":0.0019347000000000001,"MEAN_MOTION_DOT":6.88e-06,"MEAN_MOTION_DDOT":0.0},{"OBJECT_NAME":"ONEWEB-0045","OBJECT_ID":"2020-008W","EPOCH":"2026-04-03T05:45:55.684512","MEAN_MOTION":13.11415719,"ECCENTRICITY":0.0001849,"INCLINATION":87.8914,"RA_OF_ASC_NODE":35.951,"ARG_OF_PERICENTER":83.1406,"MEAN_ANOMALY":276.9933,"EPHEMERIS_TYPE":0,"CLASSIFICATION_TYPE":"U","NORAD_CAT_ID":45151,"ELEMENT_SET_NO":999,"REV_AT_EPOCH":30058,"BSTAR":-0.00098025,"MEAN_MOTION_DOT":-3.35e-06,"MEAN_MOTION_DDOT":0.0},{"OBJECT_NAME":"ONEWEB-0047","OBJECT_ID":"2020-008X","EPOCH":"2026-04-03T05:49:04.520352","MEAN_MOTION":13.10376387,"ECCENTRICITY":0.0002073,"INCLINATION":87.8824,"RA_OF_ASC_NODE":51.1758,"ARG_OF_PERICENTER":80.3362,"MEAN_ANOMALY":279.8,"EPHEMERIS_TYPE":0,"CLASSIFICATION_TYPE":"U","NORAD_CAT_ID":45152,"ELEMENT_SET_NO":999,"REV_AT_EPOCH":29838,"BSTAR":0.0011253,"MEAN_MOTION_DOT":4.06e-06,"MEAN_MOTION_DDOT":0.0},{"OBJECT_NAME":"ONEWEB-0048","OBJECT_ID":"2020-008Y","EPOCH":"2026-04-03T05:41:54.297600","MEAN_MOTION":13.10374678,"ECCENTRICITY":0.0001976,"INCLINATION":87.8821,"RA_OF_ASC_NODE":51.2028,"ARG_OF_PERICENTER":80.756,"MEAN_ANOMALY":279.3791,"EPHEMERIS_TYPE":0,"CLASSIFICATION_TYPE":"U","NORAD_CAT_ID":45153,"ELEMENT_SET_NO":999,"REV_AT_EPOCH":29799,"BSTAR":2.3894000000000002e-05,"MEAN_MOTION_DOT":2.1e-07,"MEAN_MOTION_DDOT":0.0},{"OBJECT_NAME":"ONEWEB-0049","OBJECT_ID":"2020-008Z","EPOCH":"2026-04-03T05:46:29.542944","MEAN_MOTION":13.10375583,"ECCENTRICITY":0.0001452,"INCLINATION":87.882,"RA_OF_ASC_NODE":51.1903,"ARG_OF_PERICENTER":76.1948,"MEAN_ANOMALY":283.934,"EPHEMERIS_TYPE":0,"CLASSIFICATION_TYPE":"U","NORAD_CAT_ID":45154,"ELEMENT_SET_NO":999,"REV_AT_EPOCH":29821,"BSTAR":0.00063546,"MEAN_MOTION_DOT":2.34e-06,"MEAN_MOTION_DDOT":0.0},{"OBJECT_NAME":"ONEWEB-0051","OBJECT_ID":"2020-008AA","EPOCH":"2026-04-03T05:43:27.942240","MEAN_MOTION":13.11416842,"ECCENTRICITY":0.0001876,"INCLINATION":87.8911,"RA_OF_ASC_NODE":35.9638,"ARG_OF_PERICENTER":80.2576,"MEAN_ANOMALY":279.8764,"EPHEMERIS_TYPE":0,"CLASSIFICATION_TYPE":"U","NORAD_CAT_ID":45155,"ELEMENT_SET_NO":999,"REV_AT_EPOCH":30126,"BSTAR":-0.00057758,"MEAN_MOTION_DOT":-1.92e-06,"MEAN_MOTION_DDOT":0.0},{"OBJECT_NAME":"ONEWEB-0052","OBJECT_ID":"2020-008AB","EPOCH":"2026-04-03T06:12:39.511296","MEAN_MOTION":13.08894756,"ECCENTRICITY":0.0001734,"INCLINATION":87.8826,"RA_OF_ASC_NODE":51.1694,"ARG_OF_PERICENTER":78.8341,"MEAN_ANOMALY":281.298,"EPHEMERIS_TYPE":0,"CLASSIFICATION_TYPE":"U","NORAD_CAT_ID":45156,"ELEMENT_SET_NO":999,"REV_AT_EPOCH":29812,"BSTAR":0.027352,"MEAN_MOTION_DOT":9.367e-05,"MEAN_MOTION_DDOT":0.0},{"OBJECT_NAME":"ONEWEB-0053","OBJECT_ID":"2020-008AC","EPOCH":"2026-04-03T07:03:08.695296","MEAN_MOTION":13.1037323,"ECCENTRICITY":0.0001503,"INCLINATION":87.8817,"RA_OF_ASC_NODE":51.1888,"ARG_OF_PERICENTER":93.3374,"MEAN_ANOMALY":266.7925,"EPHEMERIS_TYPE":0,"CLASSIFICATION_TYPE":"U","NORAD_CAT_ID":45157,"ELEMENT_SET_NO":999,"REV_AT_EPOCH":29810,"BSTAR":-0.0016858,"MEAN_MOTION_DOT":-5.76e-06,"MEAN_MOTION_DDOT":0.0},{"OBJECT_NAME":"ONEWEB-0054","OBJECT_ID":"2020-008AD","EPOCH":"2026-04-03T06:03:24.751584","MEAN_MOTION":13.1037464,"ECCENTRICITY":0.0001821,"INCLINATION":87.8824,"RA_OF_ASC_NODE":51.1735,"ARG_OF_PERICENTER":79.5393,"MEAN_ANOMALY":280.594,"EPHEMERIS_TYPE":0,"CLASSIFICATION_TYPE":"U","NORAD_CAT_ID":45158,"ELEMENT_SET_NO":999,"REV_AT_EPOCH":29821,"BSTAR":0.0018151999999999999,"MEAN_MOTION_DOT":6.46e-06,"MEAN_MOTION_DDOT":0.0}]